{
  "norad_id": 59377,
  "name": "STARLINK-31716",
  "history": [
    {
      "epoch": "2026-04-15T12:13:19.151616Z",
      "apogee_km": 476.12331183120205,
      "perigee_km": 474.3537702665026,
      "latitude_deg": 2.9778839068209087e-05,
      "longitude_deg": 8.99172852643484,
      "height_km": 476.1580525933599,
      "semi_major_axis_km": 6853.375541048852,
      "eccentricity": 0.0001291,
      "inclination_deg": 53.161,
      "raan_deg": 35.9918,
      "arg_perigee_deg": 91.3837,
      "mean_anomaly_deg": 268.7312,
      "mean_motion_rev_day": 15.30192139
    },
    {
      "epoch": "2026-04-16T11:44:07.012320Z",
      "apogee_km": 476.05013154087555,
      "perigee_km": 474.42039961612136,
      "latitude_deg": 3.0019290004879555e-06,
      "longitude_deg": 10.77643418646484,
      "height_km": 476.1513737655036,
      "semi_major_axis_km": 6853.372265578499,
      "eccentricity": 0.0001189,
      "inclination_deg": 53.1618,
      "raan_deg": 31.4416,
      "arg_perigee_deg": 91.2469,
      "mean_anomaly_deg": 268.8668,
      "mean_motion_rev_day": 15.30193236
    },
    {
      "epoch": "2026-04-17T22:13:17.312448Z",
      "apogee_km": 476.07165310400524,
      "perigee_km": 474.3842175896234,
      "latitude_deg": -1.1524236439897536e-05,
      "longitude_deg": -154.6083894789981,
      "height_km": 475.96412896162684,
      "semi_major_axis_km": 6853.364935346814,
      "eccentricity": 0.00012311,
      "inclination_deg": 53.1618,
      "raan_deg": 24.766,
      "arg_perigee_deg": 78.9188,
      "mean_anomaly_deg": 281.1951,
      "mean_motion_rev_day": 15.30195691
    },
    {
      "epoch": "2026-04-18T04:29:30.107328Z",
      "apogee_km": 476.0445073365918,
      "perigee_km": 474.4164213617605,
      "latitude_deg": 3.366800584758447e-05,
      "longitude_deg": 109.86672345522116,
      "height_km": 475.86763816748805,
      "semi_major_axis_km": 6853.367464349176,
      "eccentricity": 0.00011878,
      "inclination_deg": 53.1616,
      "raan_deg": 23.5519,
      "arg_perigee_deg": 71.2795,
      "mean_anomaly_deg": 288.8335,
      "mean_motion_rev_day": 15.30194844
    },
    {
      "epoch": "2026-04-19T04:00:17.903232Z",
      "apogee_km": 475.99170794596466,
      "perigee_km": 474.5201474165342,
      "latitude_deg": -1.5215837146465492e-05,
      "longitude_deg": 111.65078126176387,
      "height_km": 475.67712650824296,
      "semi_major_axis_km": 6853.39292768125,
      "eccentricity": 0.00010736,
      "inclination_deg": 53.1617,
      "raan_deg": 19.0008,
      "arg_perigee_deg": 49.5183,
      "mean_anomaly_deg": 310.5911,
      "mean_motion_rev_day": 15.30186316
    },
    {
      "epoch": "2026-04-20T00:23:00.670272Z",
      "apogee_km": 476.1210462977151,
      "perigee_km": 474.4590902336604,
      "latitude_deg": 5.659912347669695e-06,
      "longitude_deg": 161.19218256894325,
      "height_km": 475.97437329178075,
      "semi_major_axis_km": 6853.427068265687,
      "eccentricity": 0.00012125,
      "inclination_deg": 53.1619,
      "raan_deg": 15.0573,
      "arg_perigee_deg": 75.0693,
      "mean_anomaly_deg": 285.0442,
      "mean_motion_rev_day": 15.30174882
    },
    {
      "epoch": "2026-04-20T23:53:46.651776Z",
      "apogee_km": 475.98668549802824,
      "perigee_km": 474.3523089645687,
      "latitude_deg": 4.868463097496249e-05,
      "longitude_deg": 162.98438759426696,
      "height_km": 475.92970071261976,
      "semi_major_axis_km": 6853.306497231298,
      "eccentricity": 0.00011924,
      "inclination_deg": 53.1628,
      "raan_deg": 10.5067,
      "arg_perigee_deg": 80.2562,
      "mean_anomaly_deg": 279.8574,
      "mean_motion_rev_day": 15.30215263
    }
  ]
}